OBJECT_NAME,OBJECT_ID,EPOCH,MEAN_MOTION,ECCENTRICITY,INCLINATION,RA_OF_ASC_NODE,ARG_OF_PERICENTER,MEAN_ANOMALY,EPHEMERIS_TYPE,CLASSIFICATION_TYPE,NORAD_CAT_ID,ELEMENT_SET_NO,REV_AT_EPOCH,BSTAR,MEAN_MOTION_DOT,MEAN_MOTION_DDOT
STARLINK-30189,2023-105A,2024-10-05T03:48:26.033760,15.02539304,.0001566,43.0042,210.5499,276.9535,83.1129,0,U,57430,999,6721,.14467E-3,.1751E-4,0
STARLINK-30170,2023-105B,2024-10-04T21:20:44.260224,15.02524525,.0000801,43.0011,211.9653,221.1773,138.9009,0,U,57431,999,6722,.10579E-2,.14111E-3,0
STARLINK-30188,2023-105C,2024-10-05T03:38:48.798816,15.02558871,.0000994,43.0095,210.4968,294.2125,65.8613,0,U,57432,999,6722,.21709E-3,.2732E-4,0
STARLINK-30105,2023-105D,2024-10-04T20:26:41.829792,15.40692127,.0002605,43.0015,110.9838,265.3596,94.6963,0,U,57433,999,6845,.25014E-3,.10157E-3,0
STARLINK-30102,2023-105E,2024-10-04T21:06:20.401056,15.02538884,.000119,43.0022,211.8850,258.3402,101.7307,0,U,57434,999,6716,.33992E-3,.4391E-4,0
STARLINK-30180,2023-105F,2024-10-04T22:46:50.712384,15.02549352,.0001983,43.0003,211.5580,281.4711,78.5908,0,U,57435,999,6732,-.23196E-3,-.3337E-4,0
STARLINK-30183,2023-105G,2024-10-05T12:58:22.800288,15.02766463,.0001588,42.9998,208.2554,246.7148,113.3527,0,U,57436,999,6732,.16019E-2,.21635E-3,0
STARLINK-30237,2023-105H,2024-10-05T12:49:13.315296,15.02532993,.0002457,43.0062,208.2052,263.0277,97.0286,0,U,57437,999,6755,-.12516E-3,-.1894E-4,0
STARLINK-30158,2023-105J,2024-10-05T03:19:39.753984,15.02526673,.0001544,43.0035,210.3980,257.6248,102.4422,0,U,57438,999,6726,.21112E-3,.2649E-4,0
STARLINK-30173,2023-105K,2024-10-05T03:48:41.084640,15.02539978,.0000943,43.0040,196.9722,285.5645,74.5093,0,U,57439,999,6742,.12557E-3,.1493E-4,0
STARLINK-30159,2023-105L,2024-10-05T12:44:26.796480,15.02534296,.0000466,43.0054,208.1744,297.1120,62.9675,0,U,57440,999,6717,.30093E-4,.203E-5,0
STARLINK-30160,2023-105M,2024-10-05T12:39:38.857248,15.02535971,.0000984,43.0020,208.1569,286.3255,73.7479,0,U,57441,999,6715,.92001E-4,.1039E-4,0
STARLINK-30146,2023-105N,2024-10-05T12:34:50.786688,15.02540749,.0001412,43.0030,208.1312,274.3848,85.6833,0,U,57442,999,6738,.1689E-3,.2079E-4,0
STARLINK-30197,2023-105P,2024-10-05T04:31:22.723680,15.02561631,.0001242,43.0032,209.9096,267.5786,92.4915,0,U,57443,999,6733,.30141E-3,.3873E-4,0
STARLINK-30181,2023-105Q,2024-10-05T12:10:52.537728,15.02542383,.0000927,43.0038,208.0043,274.3734,85.7003,0,U,57444,999,6738,.23126E-3,.2922E-4,0
STARLINK-30215,2023-105R,2024-10-05T12:17:16.468224,15.02533546,.0001358,43.0042,208.0323,271.3736,88.6951,0,U,57445,999,6712,.10517E-3,.1217E-4,0
STARLINK-30162,2023-105S,2024-10-05T12:06:29.029824,15.02556721,.0001504,43.0021,195.2447,268.2805,91.7865,0,U,57446,999,6747,.37961E-3,.4931E-4,0
STARLINK-30178,2023-105T,2024-10-05T04:17:00.724704,15.02553945,.0001377,43.0037,209.8356,266.9123,93.1561,0,U,57447,999,6727,.13479E-3,.1618E-4,0
STARLINK-30196,2023-105U,2024-10-05T12:01:17.048928,15.02539225,.0001366,43.0034,207.9526,265.6672,94.4014,0,U,57448,999,6715,.15654E-3,.1912E-4,0
STARLINK-30225,2023-105V,2024-10-05T03:57:50.654304,15.02530864,.0003112,43.0076,209.7238,237.5859,122.4683,0,U,57449,999,6736,.18681E-3,.232E-4,0
STARLINK-30217,2023-105W,2024-10-05T11:42:31.409856,15.02545252,.0002931,43.0079,195.1700,266.5981,93.4526,0,U,57450,999,6747,.166E-3,.204E-4,0
STARLINK-30216,2023-105X,2024-10-05T11:51:42.271200,15.02527195,.0001184,43.0045,207.9166,286.1668,73.9044,0,U,57451,999,6717,-.11254E-3,-.1723E-4,0
YAOGAN-36 05A,2023-106A,2024-10-05T08:37:46.809120,15.23036029,.0004004,35.0031,355.6054,243.5762,116.4542,0,U,57452,999,6659,.18286E-2,.44335E-3,0
YAOGAN-36 05B,2023-106C,2024-10-05T11:44:56.324256,15.22790528,.0004201,34.9965,354.7120,162.7232,197.3626,0,U,57454,999,6657,.12735E-2,.30584E-3,0
YAOGAN-36 05C,2023-106E,2024-10-05T11:40:54.835392,15.23189022,.000256,34.9975,354.6455,212.5871,147.4686,0,U,57456,999,6657,.22437E-2,.54727E-3,0
STARLINK-30165,2023-107A,2024-10-05T10:56:48.882912,15.02529683,.0001184,43.0062,286.0421,270.0291,90.0416,0,U,57457,999,6651,.12712E-3,.1514E-4,0
STARLINK-30140,2023-107B,2024-10-05T09:16:17.425920,15.02531763,.0001142,43.0015,286.3784,249.8882,110.1838,0,U,57458,999,6683,.58352E-3,.7687E-4,0
STARLINK-30185,2023-107C,2024-10-05T07:35:45.521376,15.02533157,.0001374,43.0023,286.7122,253.8517,106.2174,0,U,57459,999,6681,.53648E-4,.521E-5,0
STARLINK-30077,2023-107D,2024-10-05T01:08:03.620832,15.02532935,.0000955,43.0031,288.1311,259.7722,100.3013,0,U,57460,999,6678,.54433E-4,.532E-5,0
STARLINK-30229,2023-107E,2024-10-05T01:27:14.372064,15.02535188,.000125,43.0029,288.2271,277.3007,82.7693,0,U,57461,999,6677,.35815E-4,.28E-5,0
