57430,STARLINK-30189,2023,95.84,-1.0,+,43.0,Active,0,LEO,USA,USA,Unknown,Unknown,Unknown,1 57430U 23105A   24279.15863465  .00001751  00000+0  14467-3 0  9990,2 57430  43.0042 210.5499 0001566 276.9535  83.1129 15.02539304 67211,15.02539304,0.0001566,LEO
57431,STARLINK-30170,2023,95.84,-1.0,+,43.0,Active,0,LEO,USA,USA,Unknown,Unknown,Unknown,1 57431U 23105B   24278.88940116  .00014111  00000+0  10579-2 0  9992,2 57431  43.0011 211.9653 0000801 221.1773 138.9009 15.02524525 67228,15.02524525,8.01e-05,LEO
57432,STARLINK-30188,2023,95.84,-1.0,+,43.0,Active,0,LEO,USA,USA,Unknown,Unknown,Unknown,1 57432U 23105C   24279.15195369  .00002732  00000+0  21709-3 0  9990,2 57432  43.0095 210.4968 0000994 294.2125  65.8613 15.02558871 67229,15.02558871,9.94e-05,LEO
57433,STARLINK-30105,2023,93.46,-1.0,P,43.0,Active,0,LEO,USA,USA,Unknown,Unknown,Unknown,1 57433U 23105D   24278.85187303  .00010157  00000+0  25014-3 0  9999,2 57433  43.0015 110.9838 0002605 265.3596  94.6963 15.40692127 68453,15.40692127,0.0002605,LEO
57434,STARLINK-30102,2023,95.84,-1.0,+,43.0,Active,0,LEO,USA,USA,Unknown,Unknown,Unknown,1 57434U 23105E   24278.87940279  .00004391  00000+0  33992-3 0  9998,2 57434  43.0022 211.8850 0001190 258.3402 101.7307 15.02538884 67169,15.02538884,0.000119,LEO
57435,STARLINK-30180,2023,95.83,-1.0,+,43.0,Active,0,LEO,USA,USA,Unknown,Unknown,Unknown,1 57435U 23105F   24278.94919806 -.00003337  00000+0 -23196-3 0  9995,2 57435  43.0003 211.5580 0001983 281.4711  78.5908 15.02549352 67324,15.02549352,0.0001983,LEO
57436,STARLINK-30183,2023,95.83,-1.0,+,43.0,Active,0,LEO,USA,USA,Unknown,Unknown,Unknown,1 57436U 23105G   24279.54054167  .00021635  00000+0  16019-2 0  9997,2 57436  42.9998 208.2554 0001588 246.7148 113.3527 15.02766463 67328,15.02766463,0.0001588,LEO
57437,STARLINK-30237,2023,95.84,-1.0,+,43.0,Active,0,LEO,USA,USA,Unknown,Unknown,Unknown,1 57437U 23105H   24279.53418189 -.00001894  00000+0 -12516-3 0  9991,2 57437  43.0062 208.2052 0002457 263.0277  97.0286 15.02532993 67551,15.02532993,0.0002457,LEO
57438,STARLINK-30158,2023,95.84,-1.0,+,43.0,Active,0,LEO,USA,USA,Unknown,Unknown,Unknown,1 57438U 23105J   24279.13865456  .00002649  00000+0  21112-3 0  9990,2 57438  43.0035 210.3980 0001544 257.6248 102.4422 15.02526673 67268,15.02526673,0.0001544,LEO
57439,STARLINK-30173,2023,95.84,-1.0,+,43.0,Active,0,LEO,USA,USA,Unknown,Unknown,Unknown,1 57439U 23105K   24279.15880885  .00001493  00000+0  12557-3 0  9995,2 57439  43.0040 196.9722 0000943 285.5645  74.5093 15.02539978 67424,15.02539978,9.43e-05,LEO
57440,STARLINK-30159,2023,95.84,-1.0,+,43.01,Active,0,LEO,USA,USA,Unknown,Unknown,Unknown,1 57440U 23105L   24279.53086570  .00000203  00000+0  30093-4 0  9992,2 57440  43.0054 208.1744 0000466 297.1120  62.9675 15.02534296 67175,15.02534296,4.66e-05,LEO
57441,STARLINK-30160,2023,95.84,-1.0,+,43.0,Active,0,LEO,USA,USA,Unknown,Unknown,Unknown,1 57441U 23105M   24279.52753307  .00001039  00000+0  92001-4 0  9996,2 57441  43.0020 208.1569 0000984 286.3255  73.7479 15.02535971 67159,15.02535971,9.84e-05,LEO
57442,STARLINK-30146,2023,95.84,-1.0,+,43.0,Active,0,LEO,USA,USA,Unknown,Unknown,Unknown,1 57442U 23105N   24279.52419892  .00002079  00000+0  16890-3 0  9991,2 57442  43.0030 208.1312 0001412 274.3848  85.6833 15.02540749 67389,15.02540749,0.0001412,LEO
57443,STARLINK-30197,2023,95.84,-1.0,+,43.0,Active,0,LEO,USA,USA,Unknown,Unknown,Unknown,1 57443U 23105P   24279.18845745  .00003873  00000+0  30141-3 0  9992,2 57443  43.0032 209.9096 0001242 267.5786  92.4915 15.02561631 67331,15.02561631,0.0001242,LEO
57444,STARLINK-30181,2023,95.84,-1.0,+,43.01,Active,0,LEO,USA,USA,Unknown,Unknown,Unknown,1 57444U 23105Q   24279.50755252  .00002922  00000+0  23126-3 0  9991,2 57444  43.0038 208.0043 0000927 274.3734  85.7003 15.02542383 67389,15.02542383,9.27e-05,LEO
57445,STARLINK-30215,2023,95.84,-1.0,+,43.0,Active,0,LEO,USA,USA,Unknown,Unknown,Unknown,1 57445U 23105R   24279.51199616  .00001217  00000+0  10517-3 0  9995,2 57445  43.0042 208.0323 0001358 271.3736  88.6951 15.02533546 67121,15.02533546,0.0001358,LEO
57446,STARLINK-30162,2023,95.84,-1.0,+,43.0,Active,0,LEO,USA,USA,Unknown,Unknown,Unknown,1 57446U 23105S   24279.50450266  .00004931  00000+0  37961-3 0  9994,2 57446  43.0021 195.2447 0001504 268.2805  91.7865 15.02556721 67475,15.02556721,0.0001504,LEO
57447,STARLINK-30178,2023,95.84,-1.0,+,43.0,Active,0,LEO,USA,USA,Unknown,Unknown,Unknown,1 57447U 23105T   24279.17848061  .00001618  00000+0  13479-3 0  9999,2 57447  43.0037 209.8356 0001377 266.9123  93.1561 15.02553945 67272,15.02553945,0.0001377,LEO
57448,STARLINK-30196,2023,95.84,-1.0,+,43.0,Active,0,LEO,USA,USA,Unknown,Unknown,Unknown,1 57448U 23105U   24279.50089177  .00001912  00000+0  15654-3 0  9996,2 57448  43.0034 207.9526 0001366 265.6672  94.4014 15.02539225 67150,15.02539225,0.0001366,LEO
57449,STARLINK-30225,2023,95.84,-1.0,+,43.0,Active,0,LEO,USA,USA,Unknown,Unknown,Unknown,1 57449U 23105V   24279.16516961  .00002320  00000+0  18681-3 0  9992,2 57449  43.0076 209.7238 0003112 237.5859 122.4683 15.02530864 67360,15.02530864,0.0003112,LEO
57450,STARLINK-30217,2023,95.84,-1.0,+,43.0,Active,0,LEO,USA,USA,Unknown,Unknown,Unknown,1 57450U 23105W   24279.48786354  .00002040  00000+0  16600-3 0  9992,2 57450  43.0079 195.1700 0002931 266.5981  93.4526 15.02545252 67475,15.02545252,0.0002931,LEO
57451,STARLINK-30216,2023,95.84,-1.0,+,43.0,Active,0,LEO,USA,USA,Unknown,Unknown,Unknown,1 57451U 23105X   24279.49423925 -.00001723  00000+0 -11254-3 0  9995,2 57451  43.0045 207.9166 0001184 286.1668  73.9044 15.02527195 67177,15.02527195,0.0001184,LEO
57452,YAOGAN-36 05A,2023,94.55,-1.0,+,35.0,Active,0,LEO,PRC,China,Unknown,Unknown,Unknown,1 57452U 23106A   24279.35956955  .00044335  00000+0  18286-2 0  9991,2 57452  35.0031 355.6054 0004004 243.5762 116.4542 15.23036029 66592,15.23036029,0.0004004,LEO
57454,YAOGAN-36 05B,2023,94.52,-1.0,+,35.0,Active,0,LEO,PRC,China,Unknown,Unknown,Unknown,1 57454U 23106C   24279.48954079  .00030584  00000+0  12735-2 0  9996,2 57454  34.9965 354.7120 0004201 162.7232 197.3626 15.22790528 66574,15.22790528,0.0004201,LEO
57456,YAOGAN-36 05C,2023,94.55,-1.0,+,35.0,Active,0,LEO,PRC,China,Unknown,Unknown,Unknown,1 57456U 23106E   24279.48674578  .00054727  00000+0  22437-2 0  9996,2 57456  34.9975 354.6455 0002560 212.5871 147.4686 15.23189022 66570,15.23189022,0.000256,LEO
57457,STARLINK-30165,2023,95.84,-1.0,+,43.0,Active,0,LEO,USA,USA,Unknown,Unknown,Unknown,1 57457U 23107A   24279.45612133  .00001514  00000+0  12712-3 0  9996,2 57457  43.0062 286.0421 0001184 270.0291  90.0416 15.02529683 66512,15.02529683,0.0001184,LEO
57458,STARLINK-30140,2023,95.83,-1.0,+,43.0,Active,0,LEO,USA,USA,Unknown,Unknown,Unknown,1 57458U 23107B   24279.38631280  .00007687  00000+0  58352-3 0  9990,2 57458  43.0015 286.3784 0001142 249.8882 110.1838 15.02531763 66839,15.02531763,0.0001142,LEO
57459,STARLINK-30185,2023,95.84,-1.0,+,43.0,Active,0,LEO,USA,USA,Unknown,Unknown,Unknown,1 57459U 23107C   24279.31649909  .00000521  00000+0  53648-4 0  9995,2 57459  43.0023 286.7122 0001374 253.8517 106.2174 15.02533157 66812,15.02533157,0.0001374,LEO
57460,STARLINK-30077,2023,95.84,-1.0,+,43.0,Active,0,LEO,USA,USA,Unknown,Unknown,Unknown,1 57460U 23107D   24279.04726413  .00000532  00000+0  54433-4 0  9998,2 57460  43.0031 288.1311 0000955 259.7722 100.3013 15.02532935 66782,15.02532935,9.55e-05,LEO
57461,STARLINK-30229,2023,95.84,-1.0,+,43.0,Active,0,LEO,USA,USA,Unknown,Unknown,Unknown,1 57461U 23107E   24279.06058301  .00000280  00000+0  35815-4 0  9998,2 57461  43.0029 288.2271 0001250 277.3007  82.7693 15.02535188 66776,15.02535188,0.000125,LEO
